X,Y,Name,description,HYPERLINK,POSTALCODE,KEEPERNAME,TOTALROOMS,ADDRESS,INC_CRC,FMEL_UPD_D,DESCRIPTION2,NAME2
103.839224077005,1.30050954183517,JEN Singapore Orchardgateway by Shangri-La,,singaporeorchardgateway@hoteljen.com,"238858",Kuok Oon Kwong,"499","277 Orchard Road , # 10-01",BE1CAD1F9EA0CAE3,"20210128110627",,
103.823912360589,1.3042705309298,JEN Singapore Tanglin by Shangri-La,,singaporetanglin@hoteljen.com,"249716",Kuok Oon Kwong,"565",1A Cuscaden Road,B5529ACF9E6012E4,"20210128110627",,
103.877460163672,1.311585869313,JH HOTEL,,anguskt@gmail.com,"399041",CHEN ZHIQIONG,"42",8 LORONG 10 GEYLANG,A22CE6E92D6AEBF0,"20210128110627",,
103.844455112735,1.297722839747,Ji Hotel Orchard Singapore,,,"238485",Koo Sheuan,"81",11 PENANG LANE INNOTEL,66BD9D0F880BBBD4,"20210128110627",,
103.87880673682,1.31022734045131,Jin Dong Hotel,,,"399007",ong kum fatt,"33",33 Lorong 12 Geylang,D7209ADD0712A1B6,"20210128110627",,
103.873959999289,1.31118301196188,Joyfor Singapore,,joyfor.sg@gmail.com,"389226",Koo Seck Chong,"17",135 Geylang Road,D30116664B182FD0,"20210128110627",,
103.855516058723,1.29465290571138,JW Marriott Hotel Singapore South Beach,,jw.sinjw.contactus@marriott.com,"189763",STEPHANE LOUIS FABREGOUL,"634",30 Beach Road,7A601D8BEC62E672,"20210128110627",,
103.876502260862,1.30999424174174,K Hotel,,,"399199",CAI WENCHAO,"56",44 LORONG 6 GEYLANG,0BE03789A9C46C8B,"20210128110627",,
103.904574228644,1.30485336795088,Holiday Inn Express Singapore Katong,,,"423371",Adel Aramouni,"451","88 EAST COAST ROAD, # 07-05 KATONG SQUARE",5849E01E116E3183,"20210128110627",,
103.836680368343,1.30322795583465,Holiday Inn Express Singapore Orchard Road,,info.sinex@ihg.com,"229921",Najeeb Kurungottu,"221",20 Bideford Road,1E17B0CDF1E7CDA8,"20210128110627",,
103.858630348608,1.31014109037569,Holiday Inn Express Singapore Serangoon,,,"209019",Garside Ashleigh Maree,"119",270 JALAN BESAR,F42B9FBA63112392,"20210128110627",,
103.834068286993,1.28907019166027,Holiday Inn Singapore Atrium,,hiatrium@ichotelsgroup.com,"169075",Tuncay Bockin,"518",317 Outram Road,11EF65BD203685B9,"20210128110627",,
103.841101584501,1.30227912538394,Holiday Inn Singapore Orchard City Centre,,info.hisinorchard@ihg.com,"229616",Gobind Naroomal Gary Harilela @Gary Harilela,"324",11 Cavenagh Road,789DE80F5E0211C0,"20210128110627",,
103.878121318914,1.31140043113114,Home Suite View Hotel,,homesuite12@gmail.com,"398993",SWEE WEIDI,"175",12 Lorong 12 Geylang,01012B339B2217D5,"20210128110627",,
103.853069621772,1.32170313863895,Hoover Hotel,,,"329706",Lim Choon Hua,"42","246 Balestier Road , # 02-01",EFBE8B5CA40442B0,"20210128110627",,
103.856274002503,1.31047892595777,Hotel 165,,jackson@hotel165.sg,"208532",Siah Wei Bin,"68",165 Kitchener Road,9B96822662A98D40,"20210128110627",,
103.852422678333,1.30096316425159,Ibis Singapore on Bencoolen,,H6657@accor.com,"189657",David Malcolm Lane,"538",170 Bencoolen Street,CE29B88E538416F1,"20210128110627",,
103.824897364807,1.30467322365634,The Regent Singapore,,reservations@regentsingapore.com.sg,"249715",Oscar Joan Giorgius Postma,"440",1 Cuscaden Road,0483F038CB574301,"20210128110627",,
103.858144106984,1.31559230859372,K Space Inn 569,,,"218184",CAI WENCHAO,"7",569 SERANGOON ROAD 60'S HOSTEL,732F33D9582A2253,"20210105175726",,
103.912040454705,1.30869695647047,RedDoorz near Marine Parade Central,,,"428996",AMIT SABERWAL,"62",400 EAST COAST ROAD GARDEN TERRACE HOTEL,4DB366809E651AA1,"20210105175726",,
103.880119073255,1.31179140354756,Hotel 81 - Palace,,hotel81@hotel81.com.sg,"398867",Chu Poh Yong,"192",25 Lorong 16 Geylang,6FD6C20143A9880D,"20210105175726",,
103.853270441013,1.32124006979661,Value Hotel - Balestier,,valuehotel@valuehotel.com.sg,"329684",Chu Poh Yong,"208",218 Balestier Road,EC3E7E349FA619EE,"20210105175726",,
103.853123339191,1.32138046634844,Hotel 81 - Balestier,,hotel81@hotel81.com.sg,"329688",Chu Poh Yong,"53",226 Balestier Road,30C90C6B5398385C,"20210128110627",,
103.855618625297,1.29687853383032,Hotel 81 - Bugis,,hotel81@hotel81.com.sg,"188995",Chu Poh Yong,"88",31 Middle Road,15B1260EA042F00D,"20210128110627",,
103.911729077231,1.31869115633081,Hotel 81 - Changi,,hotel81@hotel81.com.sg,"419871",Chu Poh Yong,"80","428 Changi Road , # 01-01",26435B9826BFF5F1,"20210128110627",,
103.878417449833,1.31199127691196,Hotel 81 - Cherry,,hotel81@hotel81.com.sg,"399014",Chu Poh Yong,"53",3 Lorong 12 Geylang,7B3DF51643724BE4,"20210128110627",,
103.844098495279,1.28456367163908,Hotel 81 - Chinatown,,hotel81@hotel81.com.sg,"59418",Chu Poh Yong,"95",181 New Bridge Road,6BB3C9FBF88A4898,"20210128110627",,
103.841859436164,1.27966689951546,Hotel 81 - Cosy,,hotel81@hotel81.com.sg,"89263",Chu Poh Yong,"39",8 Jiak Chuan Road,F844FDFCD3FCFA99,"20210128110627",,
103.854269341864,1.30490446592441,Hotel 81 - Dickson,,hotel81@hotel81.com.sg,"209530",Chu Poh Yong,"196",3 Dickson Road,7991DBAA1EF8329B,"20210128110627",,
103.860271946103,1.31237964690163,Hotel 81 - Elegance,,hotel81@hotel81.com.sg,"209276",Chu Poh Yong,"120","30 Foch Road , # 01-01",ED21428AA77FF425,"20210128110627",,
103.852599854946,1.32218490550845,Hotel 81 - Fuji,,hotel81@hotel81.com.sg,"329720",Chu Poh Yong,"78",269 Balestier Road,787F346C2426ABE0,"20210128110627",,
103.768589721055,1.29233444235646,The Quay Hotel West Coast,,,"118769",Heng Chern Chieh Germaine,"42",428 PASIR PANJANG ROAD SANTA GRAND HOTEL WEST COAST,92F45D6A0A4C34F7,"20210128110627",,
103.835748313428,1.30775153247414,The Quincy Hotel,,info.tqh@fareast.com.sg,"228517",Kurukulasuriya Shakila Mehani Fernando,"108",22 Mount Elizabeth,0DDCF09C9E89EB9F,"20210128110627",,
103.877336359038,1.31076953969736,Golden Star Hotel,,goldenstarhotel@yahoo.com.sg,"399095",Timothy Seah How Ming,"43",31 Lorong 8 Geylang,"31835167831920D5","20210128110627",,
103.83410906863,1.30822214594427,Goodwood Park Hotel,,enquiries@goodwoodparkhotel.com.sg,"228221","Khoo Bee Geok, Mavis","233",22 Scotts Road,0CB42F3CAFB966B5,"20210128110627",,
103.833283334569,1.3063453359855,Grand Hyatt Singapore,,singapore.grand@hyatt.com,"228211",Willi Beat Martin,"677",10 Scotts Road,F5543044BAEC0506,"20210128110627",,
103.904051128937,1.3043259893264,Grand Mercure Roxy Hotel,,H3610-FO16@accor.com,"428769",Ng Wai Peng,"576",50 East Coast Road,FEC8882D5B30CF49,"20210128110627",,
103.850123925268,1.29262894189275,Grand Park City Hall,,info.gpch@parkhotelgroup.com,"179809",Jeane Lim Sook Tiang,"343",10 Coleman Street,ED8DF7F4128749AC,"20210128110627",,
103.836202012782,1.30310525131104,Grand Park Orchard,,infor.gpor@parkhotelgroup.com,"238857",Lim Kang-Ling,"308",270 Orchard Road,AC132E5EFF9711B1,"20210128110627",,
103.857555410336,1.3159109329182,GREENDILI BACKPACKERS HOSTEL,,GREENDILIHOSTEL@GMAIL.COM,"218673",SUN KANGQING,"9",427 RACE COURSE ROAD GREENDILI BACKPACKERS HOSTEL,76E9C8C26E89E1EE,"20210128110627",,
103.854580698492,1.30462079031568,Haising Hotel,,hs@haising.com.sg,"208801",Tan Boon Yong Dominic,"56",33A Jalan Besar,4EDEA087007B5886,"20210128110627",,
103.827744716094,1.27261402571663,Harbour Ville Hotel,,harbourv@singnet.com.sg,"99448",Lim Shirley,"100",512 Kampong Bahru Road,EBDEEC996FFCE73B,"20210128110627",,
103.861509695837,1.31156411968173,Harbour Ville Hotel Hamilton,,,"209210",SOH SHIL NIE,"43",40 HAMILTON ROAD,EC415EC11AE52BC8,"20210128110627",,
103.858155071754,1.31019236449532,7 Wonders Hostel,,,"208930",Shahjahan Bin Mohamed Sitthiq,"5",257 Jalan Besar,4BC4048148518C7C,"20210128110627",,
103.852350568271,1.30635176142908,7 Wonders Hostel @ Upper Dickson,,hr@7wondershostel.com,"207472",SHAHJAHAN BIN MOHAMED SITTHIQ,"8",12A UPPER DICKSON ROAD CLIFDEN HOSTEL,59983D0C6DBD17D5,"20210128110627",,
103.859267550804,1.30366887875577,ABC HOSTEL,,booking@abchostel.com.sg,"199201",TEO WEN HAO,"23",3  Jalan Kubor (1st Storey),CA625887E4BDE889,"20210128110627",,
103.8846809303,1.31324104846935,AL Asia Hotel,,,"389447",Lim Siew Iy @ Lim Siew Ching,"16",488 GEYLANG ROAD,C7D6BD8F9A1D3615,"20210128110627",,
103.860268091316,1.30336025012185,Aliwal Park Hotel,,aliwalpark77@gmail.com,"199948",Wong Lee Peng,"53",77 Aliwal Street,338C31C6EB6057EA,"20210128110627",,
103.822016591014,1.25212800048918,"Amara Sanctuary Resort, Sentosa",,sentosa@amarasanctuary.com,"99394",Joseph Thiang Thin Poh,"140",1 Larkhill Road,7E2F91BFBF93F966,"20210128110627",,
103.843500117167,1.27493473787886,Amara Singapore,,singapore@amarahotels.com,"88539",Joseph Thiang Thin Poh,"380",165 Tanjong Pagar Road,B8E4090856EEF4CB,"20210128110627",,
103.877872197764,1.31392297209217,Amrise Hotel,,reservation@amrisehotel.com,"387436",LIM TIM BOCK,"58","112 Sims Avenue , # 01-01",BD6D5FF91F9D87FB,"20210128110627",,
103.845721510662,1.2807288857312,Ann Siang House,,,"69708",Manchharam Ashish,"20",28 ANN SIANG ROAD,73EE86A8291261E8,"20210128110627",,
103.8986087202,1.31496412930389,Aqueen Heritage Hotel - Joo Chiat,,,"427373",Chan Boon Tat,"70",51 Joo Chiat Road,479DDB1B2064D8F8,"20210128110627",,
103.851868266106,1.30736540957505,AQUEEN Heritage Hotel - Little India,,,"219962",Chan Boon Tat,"70",22 BELILIOS LANE AQUEEN HERITAGE HOTEL - LITTLE INDIA,29AF37AA78351766,"20210128110627",,
103.861344016453,1.31144511621404,Arcadia Hotel,,wyneo@arcadiahotel.com.sg,"209201",Neo Wan Yong,"36",32 Hamilton Road,1E36496D94BE0983,"20210128110627",,
103.855916077404,1.30898195611065,Arianna Hotel,,accounts@arianna.com.sg,"207662",Ng Swee Yak,"51",83 Syed Alwi Road,7FEC20B2AE2C0DC7,"20210128110627",,
103.872957810113,1.31083993031984,Ark Hostel,,singaporelodgingpteltd@gmail.com,"389200",Kelvin Tng Eng Khai,"31",83B Geylang Road,76C437DC0103BE05,"20210128110627",,
103.860855935208,1.31200012479956,Arton Hotel,,,"207576",Ooi Teck Hin,"109",176 Tyrwhitt Road,CE24146FE1909105,"20210128110627",,
103.837118390961,1.30398869691117,Ascott Orchard Singapore,,,"229724",Wong Mei Ling Judy,"220",11 CAIRNHILL ROAD,3FB23879C3C224C7,"20210128110627",,
103.851544401021,1.28208454707961,Ascott Singapore Raffles Place,,enquiry@the-ascott.com,"49247",Judy Wong Mei Ling,"146",2 Finlayson Green,EA1EEC707A782A8A,"20210128110627",,
103.854724878876,1.30850392397464,Asia Star Hotel,,johnnyangys@hotmail.com,"207995",Ang Ying Soon,"14",44 Rowell Road,02A170199B52C836,"20210128110627",,
103.859394682355,1.30120414903648,Beary Best! Hostel Kampong Glam,,BearyKG@abearygoodhostel.com,"199761",MARECHAL PIERRE JEAN M,"4","64 ARAB STREET, # 00-00",6170F48FB938CB60,"20210128110627",,
103.900168104154,1.31220268168059,Betel Box Backpackers Hostel,,info@betelbox.com,"427471",Tan Say Kiong,"6",200 Joo Chiat Road,C35238BC7123EC69,"20210128110627",,
103.860152247876,1.3118099599849,Blanc Inn,,blancinn@gmail.com,"207564",Iek Tong Wah,"4",151 Tyrwhitt Road,0A0416C2BAE46AC6,"20210128110627",,
103.844304195694,1.28445774430707,Bliss Hotel Singapore,,reservation@blisshotel.com.sg,"58353",Kee Khek Thai,"42",62 Upper Cross Street,2B14BC13300BD208,"20210128110627",,
103.85790553137,1.30982597177326,Blue Jazz Hostel,,,"208916",Wang CuiRong,"5",243 JALAN BESAR,5D64B51A34C4AA8B,"20210128110627",,
103.858436453128,1.30258711150837,Breeze Inn,,breezeinn8@gmail.com,"199135",LIN YI YUN,"16",3 JALAN PINANG ADAMSON INN,0B1AF9552E85769A,"20210128110627",,
103.878864871244,1.31351593312261,Bright Star Hotel,,brightstarhotel@yahoo.com.sg,"388575",Pauline Seah Swee Lian,"86",20 Lorong 17 Geylang,CB853F541BB75F19,"20210128110627",,
103.853224451953,1.30917900212984,Broadway Hotel,,broadwayhotelsingapore@yahoo.com,"218067",Sim Seng Quee,"65",195 Serangoon Road,6FA883FF81602956,"20210128110627",,
103.880423593148,1.31221720783339,BudgetOne Hotel,,,"398793",Lim Kee Huat,"49",10 LORONG 18 GEYLANG BUDGETONE HOTEL,A49D496D62911FD2,"20210128110627",,
103.841824512271,1.28063133791161,BUTTERNUTTREE HOTEL,,,"88392",WIWIN CHRISTANTI GHOBIND,"55",22 TECK LIM ROAD PARK 22 HOTEL CHINATOWN,41FED2B8CE69E2DF,"20210128110627",,
103.954974045383,1.33674234821614,Cameron Hotel,,info@cameronhotel.com.sg,"486917",Nicholas Ong Ann Wei,"19",393F Upper Changi Road,95B50FAF44FE2B29,"20210128110627",,
103.852641538954,1.30499470478209,Campbell Inn,,,"209922",Wang Cuirong,"10",50 CAMPBELL LANE CHECKERS BACKPACKERS,AEC0344008F84BBA,"20210128110627",,
103.824378229099,1.24948297406912,"Capella Hotel, Singapore",,gr.singapore@capellahotels.com,"98297",Fernando Gibaja Garcia-Zarco,"193",1 The Knolls,9CA2E74FFAE5A355,"20210128110627",,
103.963583777969,1.3342655648281,"Capri By Fraser Changi City, Singapore",,resvn.changicity@capribyfraser.com,"486037",Vernon Lee Koon Yong,"313",3 Changi Business Park Central 1  Changi City,8E9AFDE80718099C,"20210128110627",,
103.847061684457,1.28401467620777,"Capri By Fraser China Square, Singapore",,reservations.singapore@capribyfraser.com,"58743",Vernon Lee Koon Yong,"304",181 SOUTH BRIDGE ROAD,A88878CB6DF3EA60,"20210128110627",,
103.883955325222,1.31594220611958,CapsulePod@Aljunied,,,"388194",YAN TONGJI,"8",76A LORONG 27 GEYLANG,5EA68B54FDAD1C8E,"20210128110627",,
103.84369850009,1.27595845561159,Carlton City Hotel Singapore,,douglas.glen@carltoncity.sg,"78862",Douglas Maxwell Glen,"386",1 Gopeng Street,552A51C59C1F53D4,"20210128110627",,
103.898375899105,1.31473398017971,Champion Hotel,,janet@championhotel.com.sg,"427726",Lim Liang Jason,"81",60 Joo Chiat Road,9FE5576D9A6777AE,"20210128110627",,
103.975654971312,1.38857514608333,Changi Cove,,enquiry@changicove.com,"509866",Chew Tee Yen,"141",351 Cranwell Road,0716878A862C1E5E,"20210128110627",,
103.958317578175,1.37916855177722,Cherryloft Resorts,,resorts@cherryloft.com,"509404",ONG RYAN ZHENGYONG,"186",159 Jalan Loyang Besar,F90A1F0BFEB16707,"20210128110627",,
103.848964671913,1.28795051990571,Circular House,,,"49362",AMIT BHAGAT,"12",6 CIRCULAR ROAD,0234F0BD23901BE2,"20210128110627",,
103.851438825178,1.30512221745202,Citadines Rochor Singapore,,frontoffice.crsg@the-ascott.com,"218227",WONG MEI LING JUDY,"320","2 SERANGOON ROAD, # 03-01 TEKKA PLACE",15C288F990452AB4,"20210128110627",,
103.847281913664,1.2878039882589,City Backpackers,,citybackpackers@hotmail.com,"59661",Tan Kee Chong Derrick,"11",18 Hongkong Street,008BD07599CBF9D1,"20210128110627",,
103.852244669339,1.30156897150731,Hawaii Hostel,,,"189641",Ng Kun Heng,"83",169A Bencoolen Street,CF2AA3D06F0E5409,"20210128110627",,
103.845722570878,1.28277324511435,Heritage Collection on Chinatown,,,"58776",Yap Hui Wen,"27","227 SOUTH BRIDGE ROAD, # 01-03",FDAC3EDCBAD2FE8F,"20210128110627",,
103.851928685296,1.30833559981707,Hilton Garden Inn Singapore Serangoon,,singi.hotel@hilton.com,"219924",Eva Moral,"328",3 Belilios Road,52BC35B40F7286B1,"20210128110627",,
103.829314887852,1.30587902148372,Hilton Singapore,,sinhi@hilton.com,"238883",Peter Webster,"423",581 Orchard Road,7FA3C24CCB49505F,"20210128110627",,
103.841983925747,1.28924402665703,Holiday Inn Express Singapore Clarke Quay,,info.sincq@ihg.com,"59573",Alexandra Pauline Kloprogge,"442",2 Magazine Road,F0535AE38FFEDB05,"20210128110627",,
103.84864539809,1.28300038937659,Amoy Hotel,,info.amoy@fareast.com.sg,"48464",Clemence Cheah,"37",76 Telok Ayer Street,3144BDE51ABFBCA3,"20210723135120",,
103.857859544648,1.29916295638181,Andaz Singapore,,singapore@andaz.com,"189354",Karl Stephan Oliver,"342",5 FRASER STREET,60AA84F2F58A4CB6,"20210723135120",,
103.861297941112,1.31180974026488,AQUEEN Prestige Hotel - Lavender,,,"209204",Chan Boon Tat,"72",35 HAMILTON ROAD,3645A69C04BA1668,"20210723135120",,
103.859681427203,1.30078636753127,ARABIC INN,,,"199745",sun kangqing,"6",48 ARAB STREET KAMPONG @ ARAB,3639B3A33C005FFD,"20210723135120",,
103.81654785488,1.25923773923788,Beach Villas,,enquires@rwsentosa.com,"98135",Sim Wai Peng Tina,"35",20 Sentosa Gateway,92A0A0E98B37D4A7,"20210723135120",,
103.856934787679,1.29800182513386,Bluewaters Pod,,bluewatershospitalitypl@gmail.com,"188091",ANG QIU PING,"5","2 TAN QUEE LAN STREET, # 02-01 ATLANTIS PODS @ BUGIS",8635C25509D8CF52,"20210723135120",,
103.847101673167,1.28705545548872,CHAMPION HOTEL CITY,,janet@championhotel.com.sg,"59293",Lim Liang Jason,"33",37 NORTH CANAL ROAD,684B4BB4360E2039,"20210723135120",,
103.860424414343,1.30094429153444,Checkers Hostel @ Beach Road,,MSRPHILIP@YAHOO.COM,"199550",MD SHAMSUR RAHMAN,"23",285 BEACH ROAD,16782ABCCC2857FA,"20210723135120",,
103.819279861729,1.25593387293635,Crockfords Tower,,enquires@rwsentosa.com,"98270",Sim Wai Peng Tina,"121",10 Sentosa Gateway,373665F51CB5CE30,"20210723135120",,
103.835010036802,1.2843221081918,D'Hotel,,,"169040",WONG MEI LING JUDY,"41",231 OUTRAM ROAD WANGZ HOTEL,BA1293324C5E9236,"20210723135120",,
103.962657084899,1.32397331115705,Dusit Thani Laguna Singapore,,,"488047",Piatti Eric Michel,"198",11 LAGUNA GOLF GREEN LAGUNA NATIONAL GOLF & COUNTRY CLUB,BC13D102FD335F2A,"20210723135120",,
103.816896687818,1.25767113430044,Equarius Hotel,,enquiries@rwsentosa.com,"98133",Sim Wai Peng Tina,"183",16 Sentosa Gateway,232A2F5F23CB1EEB,"20210723135120",,
103.819026715795,1.25602110299293,Festive Hotel,,enquiries@rwsentosa.com,"98271",Sim Wai Peng Tina,"447",12 Sentosa Gateway,D61B8AECFE7D4D7B,"20210723135120",,
103.836603813301,1.28937098412522,"Four Points by Sheraton Singapore, Riverview",,finance@fourpointssingaporeriverview.com,"169629",Ho Chung Kain,"476",382 Havelock Road,BA66776174B64DE1,"20210723135120",,
103.739259626278,1.33156162898379,Genting Hotel Jurong,,enquiries@rwsentosa.com,"608516",Sim Wai Peng Tina,"557",2 Town Hall Link,686D365D8025BA1B,"20210723135120",,
103.835147957844,1.29028192700494,Grand Copthorne Waterfront Hotel Singapore,,enquiry.gcw@millenniumhotels.com,"169663",PJEY MAYANDI,"574",392 Havelock Road,6E857A24B95AD34E,"20210723135120",,
103.818913907351,1.25746583281896,Hard Rock Hotel,,enquiries@rwsentosa.com,"98139",Sim Wai Peng Tina,"364",28 Sentosa Gateway,4A9092583E11CF5C,"20210723135120",,
103.849195879682,1.28820207478702,Heritage Collection on Boat Quay Quayside Wing,,,"49864",YAP HUI WEN,"41",76 BOAT QUAY,8D11DCD7DAFD062A,"20210723135120",,
103.848499242966,1.28808237913163,Heritage Collection on Clarke Quay,,,"58670",Yap Hui Wen,"19",36 SOUTH BRIDGE ROAD LAI NGUANG BUILDING,0A441E255985EF58,"20210723135120",,
103.841812331317,1.28079216116778,Hotel 1929,,,"89154",Tang Han Min Alan,"33",50 KEONG SAIK ROAD Q LOFT HOTEL1929@CHINATOWN,E4F5799E91ED248D,"20210723135120",,
103.844175157457,1.28256763758547,Hotel Calmo Chinatown,,,"58476",CAI WENCHAO,"80",25 TRENGGANU STREET HOTEL 1887,640B893DD1F6E94A,"20210723135120",,
103.859584470771,1.30367081350441,Hotel Clover 769 North Bridge Road,,info@hotelclover769.com,"198737","TEO JUN LIANG, JEREMY","35",769 NORTH BRIDGE ROAD HOTEL CLOVER 769 NORTH BRIDGE ROAD,4DFBFFE30BD990F3,"20210723135120",,
103.881864219755,1.31100479193402,Hotel Compass,,,"398693",JIN CHENCHEN,"49",36 LORONG 22 GEYLANG HOTEL COMPASS,264B1100AB4EFC21,"20210723135120",,
103.820219415166,1.25493344657437,Hotel Michael,,enquiries@rwsentosa.com,"98269",Sim Wai Peng Tina,"464",8 Sentosa Gateway,B723D8A2F78E7A9D,"20210723135120",,
103.877505973005,1.31145566986313,ibis budget Singapore Ametrine,,,"399043",Gan Kuan Yew,"38",10 LORONG 10 GEYLANG,C4D60DCEDFDBCD3D,"20210723135120",,
103.901246960843,1.31149498302754,ibis budget Singapore Joo Chiat,,contact@fragrancehotel.com,"427485",GAN KUAN YEW,"90",219 Joo Chiat Road,812779CA7E764F6F,"20210723135120",,
103.878027379987,1.31316413429455,K Hotel 1515,,,"388607",CAI WENCHAO,"80",15 LORONG 15 GEYLANG ZEN ROOMS 1515,03CA58F0F105F1AA,"20210723135120",,
103.853166698166,1.31333978908028,K SPACE INN OWEN,,,"218903",CAI WENCHAO,"6",91A OWEN ROAD,ACC37C9B5A9A9BBF,"20210723135121",,
103.848550528151,1.28748835671493,KINN,,RESERVATIONS@STAYWITHKINN.COM,"58673",BRANDON SMITH,"7",39 SOUTH BRIDGE ROAD,A6E4166EB90C7B14,"20210723135121",,
103.834075884942,1.28556429182439,New Cape Inn,,,"168891",CHRISTOPHER ELY,"76",3 SENG POH ROAD GREEN WORLD,7F64CEFDCFC438DA,"20210723135121",,
103.853089993362,1.30782184572235,Oh My Suites,,,"207309","LEE YI, CHRISTABELLE","24",3 VEERASAMY ROAD REDDOORZ PREMIUM @ SERANGOON,9575796F63448ADC,"20210723135121",,
103.82816440606,1.30766860889292,Orchard Hotel Singapore,,,"238879",Wong On Tat Andy,"656",442 Orchard Road,B8CCD00C487D6E94,"20210723135121",,
103.850729187175,1.30761951351103,Park 22 Hotel Little India,,,"219184",ROY LENG ZHENG,"31",60 KERBAU ROAD PARK 22 HOTEL LITTLE INDIA,B6DD5FF9989E2F12,"20210723135121",,
103.846290282213,1.28563913664569,"PARKROYAL Collection Pickering, Singapore",,,"58289",JACOPIN JEAN-PHILIPPE DANIEL,"367",3 Upper Pickering Street,E9C6C11C642C77C6,"20210723135121",,
103.875894248569,1.3132565842406,Regin Hotel,,,"387416",Heng Siam Khim,"46",56 SIMS AVENUE ZEN ROOMS OASIS,2247F2C15EE9F707,"20210723135121",,
103.860315945966,1.31436249656989,Rucksack Inn 2 @Lavender,,,"338800",Dorit Grueber,"12",280A Lavender Street,6CD4132232A3CC9E,"20210723135121",,
103.860315945966,1.31436249656989,Rucksack Inn@Lavender,,lavender@rucksackinn.com,"338800",Dorit Grueber,"7",280  Lavender Street,6CD41322B5A99248,"20210723135121",,
103.854840702869,1.30536577750822,ST Signature Jalan Besar,,,"207372",Goh Keng Hong,"69",15 UPPER WELD ROAD BUNC HOSTEL,EA004B2D63B9F77B,"20210723135121",,
103.858395163567,1.30262934394456,The Hive@bugis,,,"199137",YAN TONGJI,"8",5 JALAN PINANG TREE IN LODGE,18A4539469AB88C3,"20210723135121",,
103.857758269035,1.29111728356103,The Pan Pacific Hotel Singapore,,enquiry.ppsin@panpacific.com,"39595",Paul Margaret Spence,"790",7 Raffles Boulevard,1DC444E00EC97F5B,"20210723135121",,
103.837472602698,1.28920188923002,The Warehouse Hotel,,,"169628",Tarun Kalra,"37",320 HAVELOCK ROAD,D1008FC95CE8CA2A,"20210723135121",,
103.986061074378,1.3904021092424,Village Hotel Changi,,info.vhc@fareast.com.sg,"508502",Teo Kah Eng,"380",1 Netheravon Road,D54C65340062E608,"20210723135121",,
103.902912251967,1.30377936120631,Village Hotel Katong,,info.vhk@fareast.com.sg,"449536",Terence Govinden,"229",25 Marine Parade Road,EA762650855235F7,"20210723135121",,
103.879565363057,1.31178580684439,Hotel 81 - Geylang,,hotel81@hotel81.com.sg,"398863",Chu Poh Yong,"88",20 Lorong 16 Geylang,C0A53C0A43885765,"20210128110627",,
103.881122145385,1.3119564255497,Hotel 81 - Gold,,hotel81@hotel81.com.sg,"398738",Chu Poh Yong,"98",20 Lorong 20 Geylang,412D36BEFF0E2D10,"20210128110627",,
103.85816175664,1.30942994343081,Classique Hotel,,reservations@classiquehotel.com.sg,"208913",Ang Beng MAY,"42","240 Jalan Besar , # 01-01",3C427F683C0D0D2E,"20210128110627",,
103.834726678247,1.28500519507722,COLLER BOUTIQUE HOSTEL,,,"169056",KHOO HOCK CHYE,"11",259 OUTRAM ROAD,E73470306E8D3344,"20210128110627",,
103.842228053204,1.30061437146928,Concorde Hotel Singapore,,singapore@concorde.net,"238840",Karl Lee Muir,"418",100 Orchard Road,F159AF5E324D56DB,"20210128110627",,
103.858774751329,1.29352504343592,Conrad Centennial Singapore,,sinci_acc@conradhotels.com,"38982",Peter Toi,"512",2 Temasek Boulevard,B345D633745337B5,"20210128110627",,
103.836642496764,1.28825959921985,Copthorne King Hotel Singapore,,rooms@copthornekings.com.sg,"169632",Yeoh Cheng Kung,"313",403 Havelock Road,AC71C768A70E334B,"20210128110627",,
103.843165090044,1.32059476707049,Courtyard By Marriott Singapore Novena,,,"329568",Khong Cheng Hoe Peter,"250","99 IRRAWADDY ROAD, # 22-00 ROYAL SQUARE AT NOVENA",5610EBA03AB6F4B4,"20210128110627",,
103.8728758866,1.31077389402222,Coziee Lodge,,denniskyj@gmail.com,"389198","Kwek Yi Jun, Dennis","5",77A Geylang Road,2120FA2DB22770F6,"20210128110627",,
103.987947172552,1.35868034734966,Crowne Plaza Changi Airport,,sincp@ihg.com,"819664",Cristol Bruno Olivier,"563",75 Airport Boulevard,AF34378EAA44E3DD,"20210128110627",,
103.864169303074,1.30236655161918,Destination Singapore Beach Road,,Beelay.Pua@yourdestinationhotel.com,"199598",Steven Tang,"300",700 BEACH ROAD 700 BEACH,122395C0A3F52261,"20210128110627",,
103.880838668454,1.31186042184822,Diamond Hotel,,diamondhotelreservations@gmail.com,"398806",Tan Hui Sion,"42",25 Lorong 18 Geylang,17422EA029290C65,"20210128110627",,
103.840007598921,1.27962668340609,Dorsett Singapore,,info.singapore@dorsetthotels.com,"88765",Khoo Lee Ping Jessie,"285",333 New Bridge Road,544E8182666D9389,"20210128110627",,
103.843187860266,1.27887034636785,Duxton Reserve,,,"89540",Harpreet Kaur Bedi,"49",83 Duxton Road,62177A4089D486B1,"20210128110627",,
103.847645143301,1.27987745135108,EIGHTEEN BY THREE CABINS,,k.yap@18by3.com,"68722",Lim Keong Wee,"18",3 STANLEY STREET,21EE5FC68D6045AF,"20210128110627",,
103.853331832592,1.2940764375654,"Fairmont, Singapore",,singapore@fairmont.com,"189560",Marcus Moris Hanna,"772",80 Bras Basah Road,64140E184305FFB3,"20210128110627",,
103.876690711173,1.31090999883113,five/6 Hotel Splendour,,,"399167",Teo Chou Chun,"71",5 LORONG 6 GEYLANG,D0F89133A1214EA9,"20210128110627",,
103.854953210301,1.31170732725136,Fortuna Hotel,,reservations@fortunahotel.com.sg,"218842",Chong Hiew Kwang,"105",2 Owen Road,4DC1FFEF67AAC417,"20210128110627",,
103.828652722779,1.30521021365117,Four Seasons Hotel,,,"248646",DRAMINSKY PETER CHRISTIAN,"259",190 Orchard Boulevard,20843A22330FB9E2,"20210128110627",,
103.852659081425,1.32197356951015,Fragrance Hotel - Balestier,,contact@fragrancehotel.com,"329710",SUN YI,"48",255 Balestier Road,8531B2A830493742,"20210128110627",,
103.849620250658,1.32586501711441,Fragrance Hotel - Classic,,contact@fragrancehotel.com,"329808",SUN YI,"48",418 Balestier Road,786F2851FED95010,"20210128110627",,
103.878733101613,1.35406396857104,Fragrance Hotel - Kovan,,contact@fragrancehotel.com,"534629",SUN YI,"43",760 Upper Serangoon Road,D4736F73314509FD,"20210128110627",,
103.863070799569,1.30978959074307,Fragrance Hotel - Lavender,,contact@fragrancehotel.com,"338710",Sun Yi,"35",51 Lavender Street,4635D5C533AB9359,"20210128110627",,
103.848605457803,1.32588609260467,Fragrance Hotel - Oasis,,contact@fragrancehotel.com,"329816",SUN YI,"36",435 Balestier Road,FD5312B946C9B885,"20210128110627",,
103.768512802074,1.29241376307725,Fragrance Hotel - Ocean View,,contact@fragrancehotel.com,"118773",Sun Yi,"47",432 Pasir Panjang Road,45B8CB84B412DE7F,"20210128110627",,
103.852564813209,1.32207178695444,Fragrance Hotel - Rose,,contact@fragrancehotel.com,"329715",Sun Yi,"68",263 Balestier Road,A4679646C54FA4E0,"20210128110627",,
103.813969784211,1.2698880661334,Fragrance Hotel - Viva,,contact@fragrancehotel.com,"98721",Sun Yi,"33",75 Wishart Road,577F6AF7F6C5259F,"20210128110627",,
103.844588552748,1.28647356154828,Furama City Centre Singapore,,financemgr.fcc@furama.com,"59804",Ng Wei Yong,"445",60 Eu Tong Sen Street,53FD02980AA77792,"20210128110627",,
103.836092838867,1.28763453813819,Furama Riverfront Singapore,,furama.riverfront@furama.com,"169633",Ng Wei Yeow,"615",405 Havelock Road,32401663556849F5,"20210128110627",,
103.849908920215,1.3043490812321,G4 Station Backpackers Hostel,,info@g4station.com,"228675",Lee Fut Hua,"23",11 Mackenzie Road,687BF6B7DA138240,"20210128110627",,
103.980568397632,1.38894206635745,GALLOP CHANGI BEACH RESORT,,,"509671",MANIMAHALAI D/O CHAKRAPANI,"40",49 HENDON ROAD,9D3E18D1A9DEAF28,"20210128110627",,
103.795854254263,1.33434829779462,GALLOP HILL TOP RESORT,,enquiry@gallopresort.com,"287992",MANIMAHALAI D/O CHAKRAPANI,"40",100 TURF CLUB ROAD,70F5E6522CC16FBF,"20210128110627",,
103.718425687867,1.41927815815058,GALLOP KRANJI FARM RESORT,,enquiry@gallopresort.com,"718813",MANIMAHALAI D/O CHAKRAPANI,"37",10 NEO TIEW LANE 2 D' KRANJI FARM RESORT,C46B5294DFE0E694,"20210128110627",,
103.859427833289,1.31564004044032,Gap Year Hostel,,gapyearhostel@gmail.com,"338821",Yee Seng Fu,"7",322 Lavender Street,39C5367D3D0CA169,"20210128110627",,
103.873741281934,1.31119516204353,Gay World Hotel,,,"389218",Seah Ming Kwong,"27",115 Geylang Road,4AA0EEBB872A16F9,"20210128110627",,
103.830811464545,1.27784875913754,GOLDEN HOSTEL,,,"160146",Tham Keng Pong,"7","146 JALAN BUKIT MERAH, # 01-1088",83EE621BBFF77A54,"20210128110627",,
103.855250945612,1.30914206986635,Golden Royal Hotel,,eugene@goldenroyal-hotel.com,"209645",Ee Kee Chai,"54",51 Desker Road,73DBAFAC5FE99362,"20210128110627",,
103.859372517722,1.30162127482298,Cube @ Kampong Glam,,,"199471",SONIA TAY MING HUI,"7",55 BUSSORAH STREET,AA379FBC613AD712,"20210128110627",,
103.843006363679,1.28316218264506,CUBE @ smith street,,,"58971",TAY MING HUI SONIA,"7",76A SMITH STREET,10C6ADD5F223675C,"20210128110627",,
103.843161495087,1.28303982961697,Cube Family Boutique Capsule Hotel @ Chinatown,,booking@yeschinatownpoint.com,"58967",TAY MING HUI SONIA,"24",68A Smith Street,2440729DA9DCF732,"20210128110627",,
103.87696990266,1.31090126773808,Darlene Hotel (Geylang),,darlenehotel@gmail.com,"399096",Teh Gek Keng,"62",32 Lorong 8 Geylang,9F37B2920EA15700,"20210128110627",,
103.823792222833,1.26633679754561,Travelodge Harbourfront Singapore,,,"98828",Wong Siew Khee,"334",50 TELOK BLANGAH ROAD BAY HOTEL SINGAPORE,FF47311E1E8E7DB0,"20210128110627",,
103.883723595489,1.31612667222578,Urban Hostel,,,"388189",Tan Kee Chong Derrick,"11",67A Lorong 27 Geylang,5296EC9681AE2B78,"20210128110627",,
103.862525582449,1.3078092747122,V Hotel Lavender,,vhotel@vhotel.sg,"208767",Edmund Yip Chak Mun,"888",70 Jellicoe Road,942397A2ACC2C0FB,"20210128110627",,
103.902428918272,1.30957900907828,Venue Hotel,,contact@venuehotel.sg,"427556",Chu Poh Yong,"81",305 Joo Chiat Road,131753C344D858D8,"20210128110627",,
103.900582467694,1.31154791813894,Venue Hotel The Lily,,venuelily@venuehotel.sg,"427495",Chu Poh Yong,"84",238  Joo Chiat Road,2B19BCD44D386A59,"20210128110627",,
103.852442326555,1.29709985440985,Victoria Hotel,,reservations@victoriana.sg,"188016",Loo Wai Peng,"89",87 VICTORIA STREET VICTORIA HOTEL,76D40E76B9E09BF3,"20210128110627",,
103.800885641861,1.268937683637,Villa Samadhi Singapore,,,"119193",Federico Asaro,"20",20 LABRADOR VILLA ROAD,38719C979D096BF8,"20210128110627",,
103.85071667183,1.30390260082807,Village Hotel Albert Court,,info.vhac@fareast.com.sg,"189971",Terence Govinden,"210",180 Albert Street,FB48D644D3E9B88D,"20210128110627",,
103.857668954773,1.30192812751591,Village Hotel Bugis,,info.vhb@fareast.com.sg,"188061",Gill Ishwinder,"393",390 Victoria Street,8E7B1395FC168254,"20210128110627",,
103.819943383466,1.25225951518978,Village Hotel Sentosa,,,"99951",JIM KHOO WEI KWAN,"606","10 ARTILLERY AVENUE, # 02-01",3ACCB4428D4691B9,"20210128110627",,
103.847112672325,1.28741331170278,Vintage Inn@Clarke Quay,,,"59672",HO TING CHEE,"5","33 HONGKONG STREET, # 3-33B",507C9909B9CA8A8C,"20210128110627",,
103.834573063566,1.3156477325095,VIP Hotel,,booking@viphotel.com.sg,"259895",Peter Yang,"57",5 Balmoral Crescent,AAFED76C16C46740,"20210128110627",,
103.842428148098,1.24616550353468,W Singapore Sentosa Cove Hotel,,,"98374",Heath Nicholas Robin,"240",21 Ocean Way,EC5BB01E7622254E,"20210128110627",,
103.854629633951,1.30512093794701,Wanderlust,,,"209494",Ashish Manchharam,"29",2 DICKSON ROAD,E634CAE2151689A8,"20210128110627",,
103.844144231952,1.28394841482097,Wink Hostel,,,"59488",Allan Lee @ Lee Kheen Woon,"9",8A Mosque Street,8CD89B41D968313E,"20210128110627",,
103.84757635916,1.27968475056385,Wink Hostel @ Downtown,,,"69044",Chon Yik Mau,"10",3B MCCALLUM STREET,F61D800BB2361BCC,"20210128110627",,
103.859686467655,1.30420913008075,XY HOTEL BUGIS by ASANDA HOTELS AND RESORTS,,bugis_accounts@xyglobalhotel.com,"199323",HAN BIN,"15",11 JALAN KLAPA THE ARDENNES,3359BC36EEED4017,"20210128110627",,
103.885504024451,1.31400085109484,Yew Lian Hotel,,,"389504",Chang Ying,"18",549A Geylang Road,7D48A90F765B9B0D,"20210128110627",,
103.835187499512,1.30692538671184,York Hotel,,enquiry@yorkhotel.com.sg,"228516",Khoo Elizabeth,"407",21 Mount Elizabeth,4CDA841E39CD3FBA,"20210128110627",,
103.831347094612,1.30634429879401,YOTEL Singapore Orchard Road,,brendan.daly@yotel.com,"238904",DALY BRENDAN FRANCIS,"610",366 ORCHARD ROAD,6548D63CFF38A41D,"20210128110627",,
103.989077555194,1.36034099671656,YotelAir Singapore Changi Airport,,jca.finance@yotel.com,"819666",Nicholas James Cheesman,"130","78 AIRPORT BOULEVARD, # 04-280",F81397E00B2B73F3,"20210128110627",,
103.850402269195,1.29850072017742,30 BENCOOLEN,,andrew.bastian@30bencoolen.com.sg,"189621",TAN KHENG HWEE,"131",30 BENCOOLEN STREET,45B03EF3320B1450,"20210105175725",,
103.891617685857,1.32208820086546,Aqueen Hotel - Paya Lebar,,,"409180",Chan Boon Tat,"162",33 Jalan Afifi,112720F786F4FD2B,"20210105175726",,
103.861299879306,1.30271606708358,Hotel 81 - Heritage,,hotel81@hotel81.com.sg,"198985",Chu Poh Yong,"64",71 Jalan Sultan Road,267ED9728B9AFBFC,"20210128110627",,
103.877447760285,1.31005583680827,Hotel 81 - Hollywood,,hotel81@hotel81.com.sg,"399121",Chu Poh Yong,"112",61 Lorong 8 Geylang,626BFA3DD7DED2AA,"20210128110627",,
103.876803320046,1.31278803988666,Hotel 81 - Joy,,hotel81@hotel81.com.sg,"388703",Chu Poh Yong,"42",11 Lorong 11 Geylang,72C0948FAE764D12,"20210128110627",,
103.878866751339,1.35420717029808,Hotel 81 - Kovan,,hotel81@hotel81.com.sg,"534636",Chu Poh Yong,"89","768 Upper Serangoon Road , # 02-01",80EC1F370839C845,"20210128110627",,
103.881497891026,1.31187964409268,Hotel 81 - Lucky,,hotel81@hotel81.com.sg,"398741",Chu Poh Yong,"77",23 Lorong 20 Geylang,B53E1B57F4840DD4,"20210128110627",,
103.877736767198,1.31192211161234,hotel ascendere pte ltd,,,"399035",ONG KUM FATT,"25",1 LORONG 10 GEYLANG,0A3BE5865921B7E6,"20210128110627",,
103.877512889799,1.31128855675534,K HOTEL 12,,,"399045",CAI WENCHAO,"28",12 LORONG 10 GEYLANG,FDFE52E2A7DA73CF,"20210128110627",,
103.87754128742,1.31123084152033,K HOTEL 14,,,"399047",CAI WENCHAO,"45",14 LORONG 10 GEYLANG,3C17D726A70BECCE,"20210128110627",,
103.786403408371,1.28061805876119,K2 Guesthouse,,hello@k2guesthouse.com,"118146",KAY SIEW HWA,"24",15 SOUTH BUONA VISTA ROAD,4036C00404CF8154,"20210128110627",,
103.856401207739,1.30668645165441,K2 Guesthouse Central,,,"208852",WOON LI MING RACHEL,"15",134 JALAN BESAR,2D2347DBCF59C246,"20210128110627",,
103.857271555227,1.31503287812628,Asphodel Inn,,asphoinn@yahoo.com.sg,"218702",Ong Poi Hwa,"55",380 Race Course Road (Level 2),2AA296091FCD297F,"20210128110627",,
103.855776386801,1.29837018983764,Backpacker Cozy Corner Guesthouse,,happyjohn@cozycornerguest.com,"188736","TEO FA YU, ALVIN","15",490 North Bridge Road (Level 2),9F6A6D4F9D2A2BFA,"20210128110627",,
103.84538117333,1.28384606770696,Beary Best! Hostel,,enquiry@abearygoodhostel.com,"58332",Teo Pei Han Janine,"11",18 Upper Cross Street,3C184E1C616FE499,"20210128110627",,
103.858323986493,1.29066058376185,"Mandarin Oriental, Singapore",,,"39797",Christian Andreas Hassing,"527",5 Raffles Avenue Marina Square,D9935D84C8C1EF1F,"20210128110627",,
103.858308388607,1.28233335098225,Marina Bay Sands Singapore,,inquiries@marinabaysands.com,"18956",Pek Chin Siong,"2561",1 Bayfront Avenue,EE049C95B8D93424,"20210128110627",,
103.855693846613,1.30887261138248,Marrison @ Desker,,reservations@marrisonhotel.com,"209598",Silvi,"25",75 Desker Road,F674CA9F409D7914,"20210128110627",,
103.857087531077,1.2978909223511,Marrison Hotel,,reservations@marrisonhotel.com,"189704",Silvi,"96",103 Beach Road,A95F3C2475BEB75E,"20210128110627",,
103.844367354691,1.27915221128811,Maxwell Reserve,,,"78857",Harpreet Kaur Bedi,"138",2 COOK STREET,EE242E78B0F09290,"20210128110627",,
103.854120522794,1.30392257669472,Mayo Inn,,admin@mayoinn.com,"208786",Terrance Tay Yew Soon,"22",9 Jalan Besar,CCB8DFF7E4E46704,"20210128110627",,
103.860677173023,1.31139113939717,Meadows Hostel,,meadowshostel@gmail.com,"209178",Charlie Chia,"6",7A Hamilton Road,9FCF49363901BCC3,"20210128110627",,
103.828399493406,1.31394109858619,Mercure Singapore on Stevens,,H9561-gm@accor.com,"257878",Kevin Glenn Bossino,"518","28 STEVENS ROAD, # 02-01",736907AABFF2A851,"20210128110627",,
103.854659348388,1.30474091460126,Meriton Hotel,,jackson@hotel165.sg,"208804",Teo Ai Choo,"40",43A Jalan Besar,3C69BB608AC852EB,"20210128110627",,
103.882461230625,1.31219823372169,Min Wah Hotel,,96ytlim@gmail.com,"398676",Lim Yeoh Toong,"97",19 Lorong 22 Geylang,36C8F402BD19E09E,"20210128110627",,
103.853524372799,1.30679667251442,MKS Backpackers' Hostel,,,"209757",Muthukumaran S/O Varthan,"5",44 Cuff Road,303A28DBA8243689,"20210128110627",,
103.858988963033,1.31544170610706,Moni Gallery Hostel,,enquiry@monigalleryhostel.com,"338795",Muhammad Syafiee Bin Fidrishah,"9",263 Lavender Street,231ECF36D2928E69,"20210128110627",,
103.855181687112,1.29586808458378,Naumi,,,"188396",Surya Kumar Jhunjhnuwala,"73",41 SEAH STREET NAUMI,A6D1E2CAA630EA6F,"20210128110627",,
103.881747206923,1.31323581232938,New Cathay Hotel (Geylang),,newcathayhotel@yahoo.com.sg,"389403",Timothy Seah How Ming,"53",443A Geylang Road,9A317298E2DC1AFC,"20210128110627",,
103.85103942858,1.32429128090849,New Orchid Hotel,,neworchidhotel@hotmail.com,"329777",Lim Lay Meng,"68",347 Balestier Road,CF6430A3F11D1978,"20210128110627",,
103.858259328995,1.31023794252736,New Society Backpacker,,newsoc259@gmail.com,"208934",Ho Chiuen Sheey,"4",259A Jalan Besar,2A49668782EE61A8,"20210128110627",,
103.833551413429,1.28509462357436,Nostalgia Hotel,,frontdesk@hotelnostalgia.com.sg,"168727",Ranjitha De Silva,"50",77 Tiong Bahru Road,711B8213261F0802,"20210128110627",,
103.828399493406,1.31394109858619,Novotel Singapore On Stevens,,H9543-gm@accor.com,"257878",Kevin Glenn Bossino,"254","28 STEVENS ROAD, # 01-01",736907AA25FE4DFE,"20210128110627",,
103.848408637443,1.27698070007554,OAKWOOD PREMIER AMTD SINGAPORE,,,"68809",Roy Liang Ming Kai,"268","6 SHENTON WAY, # 07-01 OUE DOWNTOWN",7205A5535E1146FF,"20210128110627",,
103.844244859294,1.27585063042586,"Oasia Hotel Downtown, Singapore",,reseasy@fareast.com.sg,"79333",Chai Khye Yeien,"314",100 Peck Seah Street,0A3AC604F6E09AC9,"20210128110627",,
103.844782388216,1.32003004588439,"Oasia Hotel Novena, Singapore",,frontofc.ohs@fareast.com.sg,"307470",Karamjit Kaur,"428",8 Sinaran Drive,80CA87F8734D9CC5,"20210128110627",,
103.81955756883,1.25329365829851,Oasia Resort Sentosa,,,"98679",KHOO WEI KWAN JIM,"191","23 BEACH VIEW LE MERIDIEN SINGAPORE, SENTOSA",601E97AE26933072,"20210128110627",,
103.853842196119,1.31275667459011,One Farrer Hotel,,,"217562",Gilbert Madhavan,"249",1 Farrer Park Station Road,F37D68990972A74D,"20210128110627",,
103.827739432245,1.3065751631695,"Orchard Rendezvous Hotel, Singapore",,info@orh.com.sg,"247905",Wong Siew Ling,"388",1 Tanglin Road,A28ECA9D723C57F9,"20210128110627",,
103.843847231635,1.27693674003785,Orchid Hotel,,resv@orchidhotel.com.sg,"78867",Chng Beng Siong,"272",1 Tras Link,1FE534AAAEAA2E17,"20210128110627",,
103.851820111255,1.29801057337893,Oxford Hotel,,reservation@oxfordhotel.com.sg,"188549",Mohamed Rafi Bin Hasan,"134",218 Queen Street,A973ACA1E3287E37,"20210128110627",,
103.860232906684,1.29943396113579,Pan Pacific Serviced Suites Beach Road,,,"199592",Choong Nyuk Fee,"180",7500B Beach Road,9E6BED1EEB59E7B4,"20210128110627",,
103.851186611181,1.30359193738081,Parc Sovereign Hotel,,contact@parcsovereign.com,"189970",Tan Thuang Wee,"172",175 Albert Street,63F02AB52A0E0DF3,"20210128110627",,
103.860633791231,1.3123170980015,Parc Sovereign Hotel - Tyrwhitt,,contact@parcsovereign.com,"207569",Sun Yi,"270",165 Tyrwhitt Road,9E4DECE8407A49E7,"20210128110627",,
103.963024016311,1.33576405585821,Park Avenue Changi,,serenetan@uel.sg,"486015",Sun Li Jing @ Ryan Sun,"251",2 Changi Business Park Avenue 1,ABC57C3E84046AB9,"20210128110627",,
103.788347378512,1.30535120421258,Park Avenue Rochester,,serenetan@uel.sg,"138637",Sun Li Jing @ Ryan Sun,"351",31 Rochester Drive,762D0E2D78AB7F0D,"20210128110627",,
103.805370079297,1.28757994526013,Park Hotel Alexandra,,info.phal@parkhotelgroup.com,"159972",Ng Sock Heng,"442",323 Alexandra Road Alexandra Central,54DE4BD65056A933,"20210128110627",,
103.842327428168,1.29154596321778,Park Hotel Clarke Quay,,info.phcq@parkhotelgroup.com,"237983",Lim Kang Ling,"340",1 Unity Street,E2C9B43EDDCF4E36,"20210128110627",,
103.854748159228,1.31198097077815,PARK HOTEL FARRER PARK,,,"217564",Yong Guan Chuan,"300",10 FARRER PARK STATION ROAD FARRER SQUARE,EB1C5A786B4D0016,"20210128110627",,
103.844443322367,1.28808355052563,Park Regis Singapore,,gmprsi@parkregissingapore.com,"58268",Lim Soon Hwee,"202",23 Merchant Road,604959AAFF008FEF,"20210128110627",,
103.856493969017,1.29720601629426,Park View Hotel,,parkview@parkview.com.sg,"189692",Lim Min Wee Ernest,"88",81 Beach Road,150AA2256C64E3CF,"20210128110627",,
103.857007341008,1.29145525906521,"PARKROYAL COLLECTION  Marina Bay, Singapore",,,"39594",Lim Wen Pin Melvin,"575",6 RAFFLES BOULEVARD MARINA SQUARE,ADBAF9D2FB98EAF8,"20210128110627",,
103.855657430547,1.31053024250151,PARKROYAL on Kitchener Road,,enquiry@kr.parkroyalhotels.com,"208533",CHUNG KUM SENG,"532",181 Kitchener Road,268232B7F53B2ACD,"20210128110627",,
103.770167551417,1.29207833471118,Pasir Panjang Inn,,ppinn@pacific.net.sg,"118741",Ang Poh Seow,"54",404 Pasir Panjang Road,ACE2FE4B779F9B6F,"20210128110627",,
103.853597393505,1.31119377982074,Penta Hotel,,booking@pentahotel.com.sg,"219894",Lim Hwee Meang Rachel,"48",33 Birch Road,1CBC78FFEACAD597,"20210128110627",,
103.853212740709,1.30477735433313,Perak Hotel,,perlodge@singnet.com.sg,"208133",Tong Kok Chiang,"32",12 Perak Road,BBB3B691A6BEE9E0,"20210128110627",,
103.860208871905,1.31190914918039,Pine Hostel @ Lavender,,pinehostelsg@gmail.com,"207566","TAN KEE CHONG, DERRICK","7",153A TYRWHITT ROAD QINAN BUILDING,89CA0A7A79FC29C9,"20210128110627",,
103.855722993909,1.29678178848365,Populous Hotel,,info@populoushotel.com,"188933",Silvi,"80",23 MIDDLE ROAD,C90C0045451F7566,"20210128110627",,
103.844285506043,1.28423977707313,Porcelain Hotel,,enquiry@porcelainhotel.com,"59526",Hu Yingna,"138",48 Mosque Street,6007287F12F8B23D,"20210128110627",,
103.852519737986,1.3200518654597,Quality Hotel Marlow,,dm@qualityhotelmarlow.com.sg,"329926",ONG CHIEW SENG KELLVIN,"240",201 Balestier Road,024A3E93AA27A3C7,"20210128110627",,
103.881036636411,1.31122558409044,RedDoorz @ Geylang,,,"397662",Amit Saberwal,"33",61 WESTERHOUT ROAD,9DED7DB90451ECFB,"20210128110627",,
103.854059862488,1.3050887952847,RedDoorz Plus @ Little India,,,"209507",AMIT SABERWAL,"80","23 DICKSON ROAD, # 1-01-01 MOON 23 HOTEL",97163266745A72F5,"20210128110627",,
103.826031941452,1.31283861068763,RELC International Hotel,,,"258352",FRANCIS CHOO KOH ENG,"151",30 ORANGE GROVE ROAD RELC BUILDING,22877550BD395886,"20210128110627",,
103.849316109185,1.29858303536992,Rendezvous Hotel Singapore,,reseasy@fareast.com.sg,"189559",Douglas Fernandez,"298",9 Bras Basah Road,76A6E9EF9D75EAA7,"20210128110627",,
103.859429082823,1.30405334691991,Rest Bugis Hotel,,,"199207",Adrian Siow Shen Ngin,"74",8 JALAN KUBOR SANTA GRAND HOTEL BUGIS,F7A9ECA7E9C5B114,"20210128110627",,
103.847112672325,1.28741331170278,River City Inn,,rivercityinn.sg@gmail.com,"59672",Loke Weng Yian,"4",33C Hongkong Street,507C99092AECCB4C,"20210128110627",,
103.635089828004,1.34158800024817,RM Hotel,,recept@rafflesmarina.com.sg,"638404",Parry Raymond John,"19",10 Tuas West Drive,E4AF163C69E28926,"20210128110627",,
103.841985961154,1.29116819945429,Robertson Quay Hotel,,accounts@robertsonquayhotel.com.sg,"239032",Ng Swee Huat,"148",15 Merbau Road,790DB71B2EA818E3,"20210128110627",,
103.855672473307,1.30922887156542,Royal India Hotel,,sales@royalindiahotel.com,"207667",Ee Kee Chai,"43","88 Syed Alwi Road , # 01-02",7C0288ACB8780567,"20210128110627",,
103.83144576982,1.30708931817226,Royal Plaza,,royal@royalplaza.com.sg,"228220",Patrick Fiat,"511",25 Scotts Road,05B26C8FAD051389,"20210128110627",,
103.847321862853,1.28732233868587,S Inn Clarke Quay,,cq@s-inn.co,"59677",LI XIAOJIA,"11",38A Hongkong Street,F9167CB6F06F8117,"20210128110627",,
103.853595766242,1.30480931241135,Sandpiper Hotel,,reservations@sandpiperhotels.com,"209391",Pankaj Pandit,"31",63 Dunlop Street,21836099F65FD737,"20210128110627",,
103.905795541013,1.30672319863699,Santa Grand Hotel East Coast,,reservations@santagrand.stayariva.com,"428877",Siah Siew Geok,"73",171 East Coast Road,11B3D1D294E34E55,"20210128110627",,
103.882411818147,1.31231758276067,Seng Wah Hotel,,sengwahhotel@hotmail.com,"398673",Han Siew Ying,"16",15 Lorong 22 Geylang,54E34679A8F2E0C5,"20210128110627",,
103.826756760616,1.31124740290096,Shangri-La Hotel,,sls@shangri-la.com,"258350",Kuok Oon Kwong,"792",22 Orange Grove Road,468EE28FE511CD7C,"20210128110627",,
103.809797894322,1.25780205516677,"Shangri-La's Rasa Sentosa Resort & Spa, Singapore",,sen@shangri-la.com,"98970",Kuok Oon Kwong,"454",101 Siloso Road Sentosa,BB45D010408A18CB,"20210128110627",,
103.836462155528,1.31195052968093,Sheraton Towers Singapore Hotel,,sheraton.towers.singapore@sheraton.com,"228230",Long Sie Fong,"420",39 Scotts Road,F8CB983B3D469C43,"20210128110627",,
103.820644196531,1.25291730866453,THE BARRACKS HOTEL SENTOSA,,,"99567",Jim Khoo Wei Kwan,"40",2 GUNNER LANE,414D012CC57A8063,"20210128110627",,
103.891452441641,1.30076129162384,Sing Hoe Hotel,,,"437761",ong kum fatt,"41",759 Mountbatten Road,98570114497D82A1,"20210128110627",,
103.832874081575,1.3050223054635,Singapore Marriott Tang Plaza Hotel,,,"238865",Alvin Lim Yue Ping (Lin Youbin),"403",320 Orchard Road,44DC3BCF439057DC,"20210128110627",,
103.860729254991,1.31141627021243,Singapore OSS Backpackers Hostel Pte Ltd,,sossbackpackers@gmail.com,"209180",RAJENDRA PRASAD S/O N N SRINIVASA NAIDU,"9","9 HAMILTON ROAD, # 01-01",0282C860E0028697,"20210128110627",,
103.849654800023,1.27992196206236,SO Sofitel Singapore,,H8655@sofitel.com,"68876",Mazen Abil Mona,"134",35 Robinson Road,D76D599B9B392E63,"20210128110627",,
103.845070104293,1.2769051570011,Sofitel Singapore City Centre,,,"78885",Wouter Frank De Graaf,"223",9 WALLICH STREET,877335F1F7B222E5,"20210128110627",,
103.827492431992,1.24579708620123,Sofitel Singapore Sentosa Resort & Spa,,h9474@sofitel.com,"99891",PIOTR JAN KUPIEC,"215",2 Bukit Manis Road,8ED426B6591D6CD4,"20210128110627",,
103.856569786349,1.29730337226863,ST Signature Bugis Beach,,,"189694","Goh Shen Shu, Donovan","38",85 BEACH ROAD 85 BEACH GARDEN HOTEL,DB99D87A121B6006,"20210128110627",,
103.84425057595,1.27865807402423,ST Signature Tanjong Pagar,,,"78972","SEAH HUI XIAN, JOANNE","92",32 TRAS STREET,AA44DCA443FC414B,"20210128110627",,
103.849738602552,1.29865275917035,Strand Hotel,,reservations@strandhotel.com.sg,"189619",Ang Beng Hoh,"130",25 Bencoolen Street,4CBD6C0C45A2C220,"20210128110627",,
103.839076191393,1.29077754111531,Studio M Hotel,,enquiry.smh@millenniumhotels.com,"238910",Othmane Amrani,"360",3 Nanson Road,F03EF56B7402C41A,"20210128110627",,
103.852237513996,1.30165938361762,Summer View Hotel,,sales@summerviewhotel.com.sg,"189642",Lim Chin Sen,"86",173  Bencoolen Street,CD59DA00B214CF3B,"20210128110627",,
103.845692303714,1.28821802379383,"Swissotel Merchant Court,Singapore",,singapore-merchantcourt@swissotel.com,"58281",Rainer Tenius,"476",20 Merchant Road,E95540E066605ABF,"20210128110627",,
103.853365178371,1.29326862339764,"Swissotel The Stamford, Singapore",,singapore-stamford@swissotel.com,"178882",Marcus Moris Hanna,"1252",2 Stamford Road,274A090AC4E4760E,"20210128110627",,
103.856565024278,1.31026597160938,Tai Hoe Hotel,,gmgthh@gmail.om,"208538",Yee Loy Hoe,"73",163 Kitchener Road,66D062ACD78032C6,"20210128110627",,
103.877081648955,1.30992260867721,Taipei Hotel (2000),,,"399120",Tay Tiong Ying,"38",60 Lorong 8 Geylang,4BA3F667FAB50100,"20210128110627",,
103.879175568282,1.31219356032738,The Amazing Inn,,sengwahhotel@hotmail.com,"398913",Han Siew Ying,"18",1 Lorong 14 Geylang,88CC31FCB51FF28E,"20210128110627",,
103.848274543912,1.28266106573536,The Clan Hotel,,,"48417",CHRISTINA WENDY LEE,"324",10 CROSS STREET,67A44488A8BB85B6,"20210128110627",,
103.852855023694,1.30475126170812,The Daulat,,reservation@thedaulat.com,"208413",Shaik Mohamed S/O Mohamed Abdul Jaleel,"16",16 Madras Street,45265B49626D01D9,"20210128110627",,
103.835712305282,1.30802411708656,The Elizabeth,,info@theelizabeth.com.sg,"228518",Mohamed Faharudin Bin Masood,"256",24 Mount Elizabeth,8285E273B7F99A45,"20210128110627",,
103.8534802041,1.28396667042346,The Fullerton Bay Hotel,,fbh.info@fullertonhotels.com,"49326",Giovanni Viterale,"98",80 Collyer Quay,2745F9F5912EC8B9,"20210128110627",,
103.852970351253,1.2861932360653,The Fullerton Hotel,,tfs.info@fullertonhotels.com,"49178",Giovanni Viterale,"399",1 Fullerton Square,7604490E359CB43E,"20210128110627",,
103.853009974106,1.30493595075971,THE GREAT MADRAS,,zubair@dam.com.sg,"208422",SHAIK MOHAMED S/O MOHAMED ABDUL JALEEL,"29",28 MADRAS STREET,ACD183F8850757BA,"20210128110627",,
103.858786331918,1.31571664407736,The Hive Singapore Hostel,,,"218223",YAN TONGJI,"13",624 SERANGOON ROAD THE HIVE,915876CC5A5C1A96,"20210128110627",,
103.843868478868,1.28320660795322,The Inn at Temple Street,,rsvn.room@theinn.com.sg,"58581",Kho Chuan Thye Patrick,"42",36 Temple Street,DB87DFC691F6C004,"20210128110627",,
103.819943383466,1.25225951518978,The Outpost Hotel Sentosa,,,"99951",JIM KHOO WEI KWAN,"193","10 ARTILLERY AVENUE, # 03-01",3ACCB44270106170,"20210128110627",,
103.848312936218,1.2870550760207,THE QUAY HOTEL,,,"58688","Heng Chern Chieh, Germaine","41",57 SOUTH BRIDGE ROAD SANTA GRAND HOTEL BOAT QUAY,8F1A6E60C344BF35,"20210128110627",,
103.861185772159,1.31234470122478,The Quay Hotel Lavender,,,"338739",Heng Chern Chieh Germaine,"102",139 LAVENDER STREET AQUEEN HOTEL - LAVENDER,C500B925DFFB1C49,"20210128110627",,
103.859699504459,1.31322431873699,Kam Leng Hotel,,reservations@kamleng.com,"209001",Hu Yingna,"70",383 Jalan Besar,90F5301BD31E81DD,"20210128110627",,
103.841542357757,1.28061922396397,KeSa House,,,"89158",Manchharam Ashish,"60","55 KEONG SAIK ROAD, # 01-02",FD57F84B8A87C940,"20210128110627",,
103.876240340591,1.31143553463831,Kim Tian (Star) Hotel,,,"399166",Steven Han How Chye,"43",4 Lorong 6 Geylang,108A3FBC4F850C72,"20210128110627",,
103.877802903174,1.3112646112522,La Mode (Sophia),,,"399050",Teng Ai Fong,"35",17 Lorong 10 Geylang,DAC543AEA585EF1C,"20210128110627",,
103.883130632629,1.31301909204336,Lai Ming Hotel,,otl@laiming.com.sg,"389396",Ong Tong Liang,"15",432  Geylang Road,D8439240641E1543,"20210128110627",,
103.88287775601,1.31285242907657,Lai Ming Hotel Cosmoland,,otl@laiminghotel.com.sg,"389395",Ong Tong Liang,"54",424 Geylang Road,65C3A99FF5F30E2F,"20210128110627",,
103.877164397644,1.31181053676029,LEX HOTEL (LORONG 8),,,"399073",PANG CHIN FATT,"41",1 LORONG 8 GEYLANG,AE0C6660884D2FC4,"20210128110627",,
103.834290657294,1.28487238567456,Link Hotel,,info@linkhotel.com.sg,"168733",Dong Hankun,"274",50 Tiong Bahru Road,DB8D4F17741BF058,"20210128110627",,
103.840365853895,1.29726358007835,Lloyd's Inn,,mail@lloydsinn.com,"239091","CHANG YI WEN, JOAN","34",2 Lloyd Road,2C4F2C1B0F9C696C,"20210128110627",,
103.880201803937,1.31152237256803,Lodge 41,,,"398877",Yong Chung Yung,"22",41 Lorong 16 Geylang,C7F5DB12BA986119,"20210128110627",,
103.84945862617,1.29157596080638,lyf Funan Singapore,,,"179370",Cross Norman Francis,"329",67 HILL STREET,7C29A0FEB41A1905,"20210128110627",,
103.837220928325,1.29086699266622,M Social Singapore,,,"238259",Othmane AMRANI,"293",90 Robertson Quay,72424155F1FBBF08,"20210128110627",,
103.836340959124,1.3020645045383,Mandarin Orchard Singapore,,orchard@meritushotels.com,"238867",Danny Wong Hee Ling,"1077",333 Orchard Road,7FB2435245CD216A,"20210128110627",,
103.877397285256,1.31067428643295,K Hotel 8,,,"399099",CAI WENCHAO,"27",37 LORONG 8 GEYLANG,79215385E3D73497,"20210105175726",,
103.847672305859,1.28709359119965,Hotel Bencoolen @ Hong Kong Street,,reservation.hkst@hotelbencoolen.com,"59685",Herman Gay Teow Hua,"33",47 Hongkong Street,ABEA22C7B13DD65E,"20210128110627",,
103.860266746951,1.30571322703811,Hotel Boss,,contact@hotelboss.sg,"199020",Goh Kok Keong,"1500",500 Jalan Sultan,9EB09D9E82C19F56,"20210128110627",,
103.856724365667,1.29750996934403,Hotel Calmo Bugis,,,"189699",CAI WENCHAO,"33",95 BEACH ROAD,2F395CEF60C76569,"20210128110627",,
103.841931936895,1.30145985771336,Hotel Chancellor @ Orchard,,reservations@ghihotels.com.sg,"229635",TAN HWA LIAN,"488",28 Cavenagh Road,A82074A054106328,"20210128110627",,
103.861729305374,1.30201280747959,Hotel Clover 33 Jalan Sultan,,enquiries@hotelclover.com,"198965",Zhang YuanQing,"88",33 Jalan Sultan,CFA7AC672B10EDEC,"20210128110627",,
103.8478409081,1.28743138227384,Hotel Clover 5 Hongkong Street,,enquiries@hotelclover5hongkongstreet.com,"59648",Teo Kok Hwee,"55",5 Hongkong Street,9DC21F773915C40A,"20210128110627",,
103.847711703541,1.28746404866926,Hotel Clover 7 Hongkong Street,,enquiries@hotelclover.com,"59650",Teo Kok Hwee,"27",7 HONGKONG STREET,6E91038E536D2FE7,"20210128110627",,
103.848141341165,1.28754163889102,Hotel Clover The Arts,,,"58689",Ang Kian Kok,"44",58 South Bridge Road,9862AB3996CE343A,"20210128110627",,
103.845362056485,1.29581266426264,Hotel Fort Canning,,contact@hfcsingapore.com,"178881",Oh Chee Eng,"86",11 Canning Walk,03AB1DCDDF5A751F,"20210128110627",,
103.882676232074,1.31170570900502,Hotel Fuji,,hotelfuji.pl@gmail.com,"399541",Ho Siew Hwa,"30",22 Jalan Molek,AAEA72E3334FE227,"20210128110627",,
103.851506467292,1.30091639007984,Hotel G Singapore,,gm@hotelgsingapore.com,"188980",Guillaume Jean-Marc Laurent Places,"308",200 MIDDLE ROAD BIG HOTEL,30B395B721E9B6E1,"20210128110627",,
103.841767535762,1.3012946724269,Hotel Grand Central,,accommodations@grandcentral.com.sg,"229617",Tan Hwa Lian,"263",22 Cavenagh Road,ED92F6ECB9D7B21F,"20210128110627",,
103.852228308446,1.29755505808723,Hotel Grand Pacific,,accounts@hotelgrandpacific.com.sg,"188018",Wee Cheng Lim,"240",101 Victoria Street,B36B172E43BA4872,"20210128110627",,
103.904298453373,1.30511658100901,Hotel Indigo Singapore Katong,,,"428788",Adel Aramouni,"131","86 EAST COAST ROAD, # 01-01 KATONG SQUARE",F5982FEE6CB33200,"20210128110627",,
103.855405321377,1.29652178913596,Hotel Kai,,hst@hotelkai.com,"188593",Tan Hui See,"32",14 Purvis Street,7B30DFF3E64F94C0,"20210128110627",,
103.850020544639,1.29898582310214,Hotel Mi,,contact@hotelmi.sg,"189623",Kusaka Masaharu,"342","41 BENCOOLEN STREET, # 01-01",AC77950686B7C716,"20210128110627",,
103.844451263067,1.28379045079176,Hotel Mono,,,"59498","QUAH TZE WEN, GLENN","46","18 MOSQUE STREET, # 01-04",496E8371F0378CCE,"20210128110627",,
103.858275297851,1.30275140814887,Hotel Nuve,,contact@hotelnuve.com,"199143",Soh Shil Nie,"43",11 Jalan Pinang,B7AB95BFB22C3559,"20210128110627",,
103.847485428195,1.28723475456215,Hotel NuVe Elements,,doreen.soh@hotelnuveheritage.com,"59680","SOH SHIL FANG, DOREEN","24",41 HONGKONG STREET,29A39A158058CF62,"20210128110627",,
103.855342376526,1.29651404832504,Hotel NuVe Heritage,,,"188592",SOH SHIL NIE,"19",13 PURVIS STREET ADONIS HOTEL,5E4A09C945D05AC9,"20210128110627",,
103.858805131874,1.30732088892971,Hotel NuVe Urbane,,,"208582",Soh Shil Fang Doreen,"62",3 KING GEORGE'S AVENUE,2D4A2D8B64B10A04,"20210128110627",,
103.838407284725,1.28541002481652,Hotel Re! @ Pearl's Hill,,hr@hotelre.com.sg,"169879",Tan Kwee Hiang,"140",175A Chin Swee Road,70403A731948BA47,"20210128110627",,
103.841859487874,1.31683060092808,Hotel Royal,,royal@hotelroyal.com.sg,"307964",Lee Chou Hock,"362",36 Newton Road,3EA4D0490223DC32,"20210128110627",,
103.852133093109,1.29752625749619,Hotel Royal @ Queens,,info@royalqueens.com.sg,"188553",Lee Si Min,"231",12 Queen Street,DD88D65E669C525D,"20210128110627",,
103.841991814742,1.28037791620728,Hotel Soloha,,,"88387",Hu Yaocheng,"45",12 TECK LIM ROAD,9DBEF7F791FE0CC8,"20210128110627",,
103.842424737463,1.30133935750645,Hotel Supreme,,,"228750",Ang Poh Seow,"86",15 Kramat Road,C198C339B5A67E14,"20210128110627",,
103.855108812764,1.30981355102668,Hotel Yan,,reservations@hotel-yan.com,"207681",Lim Kah Eng,"69",162 Tyrwhitt Road,079B039AEDFA3B46,"20210128110627",,
103.887584117469,1.31396450261326,Hup Hoe Hotel,,,"389525",Tan Tong Wah,"10",586A Geylang Road,D2B28085C296E5E0,"20210128110627",,
103.855556164289,1.29692081795715,ibis budget Singapore Bugis,,contact@fragrancehotel.com,"188942",Tan Thuang Wee,"84",33 Middle Road,88B24860086EF704,"20210128110627",,
103.847146355817,1.28789594572544,ibis budget Singapore Clarke Quay,,contact@fragrancehotel.com,"59663",Tan Thuang Wee,"101",20 Hongkong Street,484A83EA6AB7C110,"20210128110627",,
103.880589488415,1.31057497568161,ibis budget Singapore Crystal,,contact@fragrancehotel.com,"398824",GAN KUAN YEW,"125",50 Lorong 18 Geylang,6AA223E6177E038D,"20210128110627",,
103.876341748039,1.31100987837705,ibis budget Singapore Emerald,,contact@fragrancehotel.com,"399174",Gan Kuan Yew,"126",20 Lorong 6 Geylang,91DAF06E228672DC,"20210128110627",,
103.862425383983,1.30963597847065,ibis budget Singapore Imperial,,contact@fragrancehotel.com,"208187",Sun Yi,"74",28 Penhas Road,F9DCAA8E0FF53F30,"20210128110627",,
103.813874982995,1.26970676465938,ibis budget Singapore Mount Faber,,contact@fragrancehotel.com,"98838",Sun Yi,"32",400 Telok Blangah Road,63EA28232CBF6295,"20210128110627",,
103.879289173768,1.31156055920328,ibis budget Singapore Pearl,,contact@fragrancehotel.com,"398961",GAN KUAN YEW,"129",21 Lorong 14 Geylang,298ADD99D17D9CBA,"20210128110627",,
103.881097098283,1.31223807766207,ibis budget Singapore Ruby,,contact@fragrancehotel.com,"398730",Gan Kuan yew,"168",10 Lorong 20 Geylang,DDDC8B366E3CAF0A,"20210128110627",,
103.877769447217,1.31175754744813,ibis budget Singapore Sapphire,,contact@fragrancehotel.com,"399037",GAN KUAN YEW,"50",3 Lorong 10 Geylang,C81A404066009054,"20210128110627",,
103.849948919677,1.30376527735541,ibis budget Singapore Selegie,,contact@fragrancehotel.com,"188329",Tan Thuang Wee,"95",183 Selegie Road,E202BBE79158BF24,"20210128110627",,
103.768888272797,1.2922089251387,ibis budget Singapore West Coast,,contact@fragrancehotel.com,"118759",Sun Yi,"57",418 Pasir Panjang Road,0D3FCE03B884E7AA,"20210128110627",,
103.845545056163,1.32614785361247,Ibis Singapore Novena,,,"329543",Lui Cheng Yan Josephine,"241",6 Irrawaddy Road,D0FE7701947F4ADF,"20210128110627",,
103.879294508881,1.33177053490393,ibis Styles Singapore on Macpherson,,H9411@accor.com,"368125",Rolfe Shamila,"298",401 Macpherson Road,EC9428511F71C37B,"20210128110627",,
103.854867046362,1.29846962637,InterContinental Singapore,,singapore@interconti.com,"188966",Andreas Kraemer,"403",80 Middle Road,2A3A1F6BDD686CD9,"20210128110627",,
103.838551707065,1.28984102269144,InterContinental Singapore Robertson Quay,,info.sinic@ihg.com,"238909",Tania Krassimirova Getzova,"225",1 NANSON ROAD,B7C8F6B53B111D38,"20210128110627",,
103.845924101605,1.28298235047301,iStay.inn,,info@istayinn.com.sg,"58764",Lim So Geok,"18",215A South Bridge Road,83F4C4AB0AD7E599,"20210128110627",,
103.858520506324,1.30769755698718,J8 Hotel,,hq@j8hotel.com,"207606",Joseph Lee Boon Leng,"98",8 Townshend Road,15783D1CB558B0A1,"20210128110627",,
103.882775886651,1.31171183228565,Jade Hotel,,eddyswee2017@gmail.com,"399535",Suey Hueh King,"36",18 Jalan Molek,74D42465590C16D6,"20210128110627",,
103.847932686159,1.28778717516192,Jayleen 1918 Hotel,,james@jayleen1918.com.sg,"59921",James Frederick Chong Kah Yean,"40",42 Carpenter Street,2816145A466EAFA7,"20210128110627",,
103.861714993221,1.31033177948249,Traveller@sg,,,"208559",Yan Tongji,"7",111H King George's Avenue,F0F5D2803F532FD8,"20210128110627",,
103.847855885666,1.28834728764827,Hotel Conforto,,main@conforto.com.sg,"59905",Ng Wee Meng,"22",16 Carpenter Street,3D9C9954B7D4AA57,"20210128110627",,
103.837414948933,1.28821989466535,Hotel Miramar Singapore,,enquiry@miramar.com.sg,"169631",Lim Kian Tiong,"342",401 Havelock Road,64350D712DE76EB3,"20210128110627",,
103.861821449557,1.31087924623786,Hotel Snow Lavender,,hotelsnow.lavender@gmail.com,"209854",Ngiam Seng Ngiap,"32",26 CAVAN ROAD HOTEL SNOW,7A21C3F177455E1C,"20210128110627",,
103.860047265048,1.29071830259005,"The Ritz-Carlton, Millenia Singapore",,sinrz.leads@ritzcarlton.com,"39799",Peter William Mainguy,"608",7 Raffles Avenue,5AC82CBBCC45350F,"20210128110627",,
103.845399528928,1.28082633621452,The Scarlet Hotel,,reservations@thescarlethotels.com,"69333",Anasri Bin T Onn,"80",33 Erskine Road,2655350159F92B0A,"20210128110627",,
103.839843127647,1.28771626958407,The Seacare Hotel,,reservations@theseacarehotel.com.sg,"169875",Choo Sin How,"103",52 Chin Swee Road,52CE0FD2072988CD,"20210128110627",,
103.845656808105,1.28341894026954,The Southbridge Hotel,,admin@southbridge.com,"58759","Leong Mun Choy, Bernard","47",210 South Bridge Road,BBB01783A55F18E5,"20210128110627",,
103.860975921584,1.30316598668086,The Sultan,,info@thesultan.com.sg,"199002",Ong Shu Xian Charmaine,"60",101 Jalan Sultan,BFB7ECAF785EECF4,"20210128110627",,
103.858401651016,1.30689059540429,The Vagabond Club,,accounts@garchahotels.com,"207630",Harpreet Kaur Bedi,"41",39 Syed Alwi Road,CE5B3EE1018C698B,"20210128110627",,
103.850795186495,1.27830729144643,The Westin Singapore,,westin.singapore@westin.com,"18961",Kuljit Singh Sarjit Singh,"305",12 Marina View   Asia Square Tower 2,9970EFDF76A09B0E,"20210128110627",,
103.882458725423,1.31205758973578,Kim Tian Hotel,,,"398678",Steven Han How Chye,"47",21 Lorong 22 Geylang,CFBF74093BAC96B4,"20210105175726",,
103.876202869193,1.31016069700456,Kim Tian Hotel (Han),,,"399281",Steven Han How Chye,"48",29 Lorong 4 Geylang,5286CCA6CD77626E,"20210105175726",,
103.860070225371,1.29945373680809,"PARKROYAL on Beach Road, Singapore",,enquiry@parkroyalhotels.com,"199591",CAMPILLO ANGELITO PAOLO LACSON,"346",7500A Beach Road The Plaza,4924DB8DA0266F16,"20210105175726",,
103.94704995457,1.33160106900625,Q Loft Hotels@Bedok,,mgtqloft@gmail.com,"469546",TAN TIAN MEI,"12","357A BEDOK ROAD, # 1-",D659C4A4FD803828,"20210105175726",,
103.849798670544,1.30437833815954,Q Loft Hotels@Mackenzie,,,"228677",Tan Tian Mei,"40",15 Mackenzie Road,F4F09F30F0E3544F,"20210105175726",,
103.854068347721,1.29509740338279,Raffles Hotel Singapore,,singapore@raffles.com,"189673",Christian Westbeld,"115",1 Beach Road,8788A5F4CB8744EF,"20210105175726",,
103.846374260603,1.32710813170856,Ramada Singapore at Zhongshan Park,,info@ramadasingapore.com,"329983",Tony John Cousens,"382",16 Ah Hood Road,19755CEBC868778A,"20210105175726",,
103.881861947743,1.31116645434913,Reddoorz @ Aljunied,,,"398691",AMIT SABERWAL,"42",34 LORONG 22 GEYLANG LEMON GRASS HOTEL,003525F687D38DDA,"20210105175726",,
103.859775934817,1.31379680423507,The Noble Hotel,,,"209012",Tay Hongwei Alinilson,"30",407 JALAN BESAR THE NOBLE HOTEL,121557C245EE5600,"20210105175726",,
103.860546413684,1.30105228944496,The Pod,,info@thepodcapsulehotel.sg,"199552",Steven Lee Ngiap Hui,"15","289 Beach Road  , # 03-01",4C641C6587C8C398,"20210105175726",,
103.854022759534,1.30473915824794,Snooze Inn @ Dunlop Street,,,"209356",Tsai Shi Shyuan,"15",28 DUNLOP STREET KAWAN HOSTEL,0E17FCCF246EDBE6,"20210105175726",,
103.853723617758,1.30536816987403,Snooze Inn Pte Ltd,,,"209518",TSAI SHI SHYUAN,"23",43 DICKSON ROAD PHIL INN,F0FF75DCB0A99F58,"20210105175726",,
103.853135267954,1.30108678628959,South East Asia Hotel,,seahotel@singnet.com.sg,"187965",Huang Wen Hwa,"51",190 Waterloo Street,79F31324BCC1C495,"20210105175726",,
103.861714993221,1.31033177948249,Spacepod@Lavender,,booking@bpsg.com.sg,"208559",Bian Haiqiu,"8",111J King George's Avenue,F0F5D28062C8D0BD,"20210105175726",,
103.877277745979,1.31119116358172,Hotel 81 - Orchid,,hotel81@hotel81.com.sg,"399090",Chu Poh Yong,"182",21 Lorong 8 Geylang,2D61777F80DEAC1D,"20210105175726",,
103.834966686156,1.28336484066759,Hotel 81 - Osaka,,hotel81@hotel81.com.sg,"169753",Chu Poh Yong,"74",1 Eng Hoon Street,44F052ED4506294E,"20210105175726",,
103.878632309021,1.31098893424992,Hotel 81 - Princess,,hotel81@hotel81.com.sg,"399001",Chu Poh Yong,"133",21 Lorong 12 Geylang,914BC2568D8E2EE1,"20210105175726",,
103.853983386178,1.30375424119096,Hotel 81 - Rochor,,hotel81@hotel81.com.sg,"208785",Chu Poh Yong,"87",5 Jalan Besar,5490849D7416D335,"20210105175726",,
103.900510985539,1.31229179932804,Hotel 81 - Sakura,,hotel81@hotel81.com.sg,"427452",Chu Poh Yong,"75",181 Joo Chiat Road,6C8B59EEC7DC4C3C,"20210105175726",,
103.849884117871,1.3032844053482,Hotel 81 - Selegie,,hotel81@hotel81.com.sg,"188318",Chu Poh Yong,"81",161 Selegie Road,F2B7F837998E434F,"20210105175726",,
103.878270058693,1.31368275668813,Hotel 81 - Spring,,hotel81@hotel81.com.sg,"388619",Chu Poh Yong,"32",22 Lorong 15 Geylang,F97BF4D688D2B64F,"20210105175726",,
103.880860523551,1.31160600473177,Hotel 81 - Star,,hotel81@hotel81.com.sg,"398828",Chu Poh Yong,"207",31 Lorong 18 Geylang,A904805F1B766828,"20210105175726",,
103.897420527925,1.31568836964855,Hotel 81 - Tristar,,hotel81@hotel81.com.sg,"424780",Chu Poh Yong,"116",1 Onan Road,64E0BD023BAB5C2C,"20210105175726",,
103.862164062966,1.31106785024407,Hotel 81 - Violet,,hotel81@hotel81.com.sg,"338722",Chu Poh Yong,"49",97 Lavender Street,14CB66640F998417,"20210105175726",,
103.847502570641,1.28871525038832,Jayleen Clarke Quay Hotel,,jayleenclarkequay@gmail.com,"59390",James Federick Chong Kah Yean,"20",25 New Bridge Road,FB331A5207372FF2,"20210128110627",,
103.843899635185,1.28285932265539,Hotel 1888,,justin.wong@hotel1888.com.sg,"58479",Adrian Siow Shen Ngin,"40","20 TRENGGANU STREET, # 01-03 JINSHAN HOTEL",0D678930AD97FD68,"20210128110627",,
103.852965178949,1.30448415943975,Adamson Lodge,,query_chris@yahoo.com.sg,"208127",Lee Choon Chuan,"7",6 Perak Road,FE502164CC10A45A,"20210128110627",,
103.858027585848,1.30929085528988,AQUEEN Hotel - Kitchener,,,"208906",Chan Boon Tat,"74",230 Jalan Besar,CC35ED728A01C109,"20210128110627",,
103.85890444877,1.31064624214852,BEAT. Sports Hostel,,sports@beathostel.co,"208953",JEREMY TEO,"13",290A Jalan Besar,FEA8E458DDD06100,"20210128110627",,
103.852518906013,1.29592644324195,Carlton Hotel,,mail@carltonhotel.sg,"189558",Darren Leroy Ware,"940",76 Bras Basah Road,2D7EFA59EE55019B,"20210128110627",,
103.855088788757,1.29589846119217,Heritage Collection on Seah,,,"188395",Yap Hui Wen,"18",39 SEAH STREET,12DFF9CFA020793F,"20210128110627",,
103.897717275598,1.31564277206077,HOTEL CLASSIC,,classic@venuehotel.sg,"427353",CHU POH YONG,"75",12 JOO CHIAT ROAD,BB709C85BCD492E7,"20210723135120",,
103.84506021481,1.27368776927434,M Hotel Singapore,,enquiry.mhs@millenniumhotels.com,"79908",Kung Teong Wah,"415",81 Anson Road,3FF220A6AA487B77,"20210723135121",,
103.845275724046,1.28184250020967,ST Signature Chinatown,,xinfang.ng@straitsorg.com,"58822",Goh Keng Hong,"25",273A SOUTH BRIDGE ROAD,C7D8D661D1477050,"20210723135121",,
103.847365855383,1.32697770059675,Days Hotel Singapore At Zhongshan Park,,info@dayshotelsingapore.com,"329133",Tony John Cousens,"405",1 Jalan Rajah,C56F326E58E1F03C,"20210128110627",,
103.890924420622,1.31502461447216,Four Chain View Hotel,,fchain@fourchain.com.sg,"389659",Ng Ah Hoi,"44",757 Geylang Road,D0D43E25D65EDFE9,"20210128110627",,
103.850763169012,1.29894385553217,V Hotel Bencoolen,,vhotel@vhotel.sg,"189627",Ng Lip Sek,"272",48 Bencoolen Street,6C886F3147D18975,"20210128110627",,
103.862351670103,1.31075782011892,Hotel 81 - Lavender,,hotel81@hotel81.com.sg,"338716",Chu Poh Yong,"85",85 Lavender Street,0B72CAA8BAA6C2C6,"20210128110627",,
103.847825737271,1.3263318785208,Balestier Hotel,,balestier_hotel@yahoo.com,"329842",Chia Kwee Beng,"42",471 Balestier Road,FDA67B664B69CB8C,"20210128110627",,
103.853083051198,1.29963654287271,Mercure Singapore Bugis,,,"188973","Wong Weng Fatt, Philip","395",122 MIDDLE ROAD MIDLINK PLAZA,4FE69DFC3D1763AE,"20210128110627",,
103.838344779654,1.2465985797506,ONE15 Marina Club,,frontdesk@one15marina.com,"98497",Tay Teng Hock,"26",11 Cove Drive,19932DA26F51B77E,"20210128110627",,
103.849820409422,1.29194591965028,Peninsula.Excelsior Hotel,,enquiries@ytchotels.com.sg,"179805",Wong Liang Tong,"591",5 Coleman Street,BF8C3F5997C76A8B,"20210128110627",,
103.849916615644,1.32522597394005,RedDoorz Premium @ Balestier,,,"329795",Amit Saberwal,"46",387 BALESTIER ROAD,96A6381EC4EA7B79,"20210128110627",,
103.84359520029,1.28330904377112,S Inn Chinatown,,ct@s-inn.co,"58597",Li Xiaojia,"13",52 Temple Street,C3B347304CF704CC,"20210128110627",,
103.814500414013,1.25498728174306,Siloso Beach Resort,,accounts@silosobeachresort.com,"99538",NG YU TECK,"195",51 Imbiah Walk,6ABC046B9B47E41E,"20210128110627",,
103.826053513866,1.30566140857401,St. Regis Hotel Singapore,,stregis.singapore@stregis.com,"247911",Radu Cernia,"299",29 Tanglin Road,048B3D5147B2C459,"20210128110627",,
103.850710602099,1.29416210124999,THE CAPITOL KEMPINSKI HOTEL SINGAPORE,,,"178906",Dawn Tan Woon Woon,"157",15 STAMFORD ROAD,B25D68ABEEB78850,"20210128110627",,
103.841640168586,1.28103904341286,The Keong Saik Hotel,,reservations@keongsaikhotel.com.sg,"89165",Tan Koon Jim,"25",69 Keong Saik Road,C08E9BF66D14C6E6,"20210128110627",,
103.850108265483,1.29918672172522,Hotel Bencoolen,,enquiries@hotelbencoolen.com,"189626",Herman Gay Teow Hua,"84",47 Bencoolen Street,6277BB04642A8A23,"20210128110627",,
103.852504389911,1.32334493742066,Value Hotel - Nice,,valuehotel@valuehotel.com.sg,"329738",Chu Poh Yong,"63",302 Balestier Road,31D11432E3C9F122,"20210105175726",,
103.842719933396,1.3269557412414,Value Hotel - Thomson,,valuehotel@valuehotel.com.sg,"329901",Chu Poh Yong,"366",592 Balestier Road,A60A2481DE2E2ACB,"20210105175726",,
